{
    "week": 296,
    "satellites": [
        {
            "Name": "BEIDOU-3 M28 (C50)",
            "Line1": "1 58654U 23207A   24344.08754486 -.00000020  00000+0  00000+0 0  9992",
            "Line2": "2 58654  55.2582  81.1093 0002362 250.9577 109.0207  1.86231843  6503",
            "SatelliteNumber": "58654",
            "Classification": "U",
            "LaunchYear": "23",
            "LaunchNumber": "207",
            "PieceOfLaunch": "A",
            "EpochYear": "24",
            "EpochDay": 344.08754486,
            "FirstDerivativeMeanMotion": -2e-07,
            "SecondDerivativeMeanMotion": "00000+0",
            "BSTAR": "00000+0",
            "SetNumber": "999",
            "Inclination": 55.2582,
            "RAAN": 81.1093,
            "Eccentricity": 0.0002362,
            "ArgumentOfPerigee": 250.9577,
            "MeanAnomaly": 109.0207,
            "MeanMotion": 1.86231843,
            "RevolutionNumber": "650"
        },
        {
            "Name": "BEIDOU-3 M26 (C48)",
            "Line1": "1 58655U 23207B   24343.88690718 -.00000018  00000+0  00000+0 0  9994",
            "Line2": "2 58655  55.2601  81.1019 0003736 240.1321 119.8354  1.86231329  6486",
            "SatelliteNumber": "58655",
            "Classification": "U",
            "LaunchYear": "23",
            "LaunchNumber": "207",
            "PieceOfLaunch": "B",
            "EpochYear": "24",
            "EpochDay": 343.88690718,
            "FirstDerivativeMeanMotion": -1.8e-07,
            "SecondDerivativeMeanMotion": "00000+0",
            "BSTAR": "00000+0",
            "SetNumber": "999",
            "Inclination": 55.2601,
            "RAAN": 81.1019,
            "Eccentricity": 0.0003736,
            "ArgumentOfPerigee": 240.1321,
            "MeanAnomaly": 119.8354,
            "MeanMotion": 1.86231329,
            "RevolutionNumber": "648"
        }
    ]
}